<?xml version="1.0" encoding="UTF-8" standalone="yes"?>
<ndm>
    <oem id="CCSDS_OEM_VERS" version="2.0">
        <header>
            <CREATION_DATE>2022-017T20:44:45.347Z</CREATION_DATE>
            <ORIGINATOR>JSC</ORIGINATOR>
        </header>
        <body>
            <segment>
                <metadata>
                    <OBJECT_NAME>ISS</OBJECT_NAME>
                    <OBJECT_ID>1998-067-A</OBJECT_ID>
                    <CENTER_NAME>EARTH</CENTER_NAME>
                    <REF_FRAME>EME2000</REF_FRAME>
                    <TIME_SYSTEM>UTC</TIME_SYSTEM>
                    <START_TIME>2022-017T12:00:00.000Z</START_TIME>
                    <STOP_TIME>2022-032T12:00:00.000Z</STOP_TIME>
                </metadata>
                <data>
                    <COMMENT>Units are in kg and m^2</COMMENT>
                    <COMMENT>MASS=458943.00</COMMENT>
                    <COMMENT>DRAG_AREA=1606.80</COMMENT>
                    <COMMENT>DRAG_COEFF=2.50</COMMENT>
                    <COMMENT>SOLAR_RAD_AREA=0.00</COMMENT>
                    <COMMENT>SOLAR_RAD_COEFF=0.00</COMMENT>
                    <COMMENT>Orbits start at the ascending node epoch </COMMENT>
                    <COMMENT>ISS first asc. node: EPOCH = 2022-01-17T13:11:16.404 $ ORBIT = 181 $ LAN(DEG) = 47.81106</COMMENT>
                    <COMMENT>ISS last asc. node : EPOCH = 2022-02-01T10:42:49.854 $ ORBIT = 412 $ LAN(DEG) = -3.51521</COMMENT>
                    <COMMENT>Begin sequence of events</COMMENT>
                    <COMMENT>TRAJECTORY EVENT SUMMARY:</COMMENT>
                    <COMMENT></COMMENT>
                    <COMMENT>|       EVENT        |       TIG        | ORB |   DV    |   HA    |   HP    |</COMMENT>
                    <COMMENT>|                    |       GMT        |     |   M/S   |   KM    |   KM    |</COMMENT>
                    <COMMENT>|                    |                  |     |  (F/S)  |  (NM)   |  (NM)   |</COMMENT>
                    <COMMENT>=============================================================================</COMMENT>
                    <COMMENT> SpX-24 Undock         021:15:35:00.000             0.0     427.4     408.1</COMMENT>
                    <COMMENT>                                                   (0.0)   (230.8)   (220.4)</COMMENT>
                    <COMMENT></COMMENT>
                    <COMMENT>=============================================================================</COMMENT>
                    <COMMENT>End sequence of events</COMMENT>
                    <stateVector>
                        <EPOCH>2022-022T22:27:00.000Z</EPOCH>
                        <X units="km">-6324.2519908583999</X>
                        <Y units="km">2457.43933056386</Y>
                        <Z units="km">-455.87535057718202</Z>
                        <X_DOT units="km/s">-1.36095573947084</X_DOT>
                        <Y_DOT units="km/s">-4.5843429413929302</Y_DOT>
                        <Z_DOT units="km/s">-5.9804496143186903</Z_DOT>
                    </stateVector>
                    <stateVector>
                        <EPOCH>2022-022T22:31:00.000Z</EPOCH>
                        <X units="km">-6417.2351699543397</X>
                        <Y units="km">1281.3009278775</Y>
                        <Z units="km">-1857.1195769493399</Z>
                        <X_DOT units="km/s">0.59035873234349001</X_DOT>
                        <Y_DOT units="km/s">-5.1569295648718203</Y_DOT>
                        <Z_DOT units="km/s">-5.6252885865962998</Z_DOT>
                    </stateVector>
                    <stateVector>
                        <EPOCH>2022-022T22:35:00.000Z</EPOCH>
                        <X units="km">-6044.5523336142696</X>
                        <Y units="km">12.1696778761407</Y>
                        <Z units="km">-3123.25509816674</Z>
                        <X_DOT units="km/s">2.4959141890113901</X_DOT>
                        <Y_DOT units="km/s">-5.3547391011682999</Y_DOT>
                        <Z_DOT units="km/s">-4.8616411917521702</Z_DOT>
                    </stateVector>
                    <stateVector>
                        <EPOCH>2022-022T22:39:00.000Z</EPOCH>
                        <X units="km">-5233.9313316635398</X>
                        <Y units="km">-1257.8616942987401</Y>
                        <Z units="km">-4162.5001864916603</Z>
                        <X_DOT units="km/s">4.2177687292149697</X_DOT>
                        <Y_DOT units="km/s">-5.1645885224284198</Y_DOT>
                        <Z_DOT units="km/s">-3.7462405930173501</Z_DOT>
                    </stateVector>
                    <stateVector>
                        <EPOCH>2022-022T22:43:00.000Z</EPOCH>
                        <X units="km">-4044.6644826224601</X>
                        <Y units="km">-2436.91149395616</Y>
                        <Z units="km">-4899.7913083245903</Z>
                        <X_DOT units="km/s">5.6323751241053301</X_DOT>
                        <Y_DOT units="km/s">-4.6013080884342896</Y_DOT>
                        <Z_DOT units="km/s">-2.36072103952923</Z_DOT>
                    </stateVector>
                    <stateVector>
                        <EPOCH>2022-022T22:47:00.000Z</EPOCH>
                        <X units="km">-2563.1124047358298</X>
                        <Y units="km">-3439.8745236453501</Y>
                        <Z units="km">-5282.0233558283799</Z>
                        <X_DOT units="km/s">6.6389484869633302</X_DOT>
                        <Y_DOT units="km/s">-3.70611345069883</Y_DOT>
                        <Z_DOT units="km/s">-0.80529819836932004</Z_DOT>
                    </stateVector>
                    <stateVector>
                        <EPOCH>2022-022T22:51:00.000Z</EPOCH>
                        <X units="km">-896.43026017337604</X>
                        <Y units="km">-4194.3869962603103</Y>
                        <Z units="km">-5281.6658439986004</Z>
                        <X_DOT units="km/s">7.1658853468626997</X_DOT>
                        <Y_DOT units="km/s">-2.5433081564886502</Y_DOT>
                        <Z_DOT units="km/s">0.80834648414711996</Z_DOT>
                    </stateVector>
                    <stateVector>
                        <EPOCH>2022-022T22:55:00.000Z</EPOCH>
                        <X units="km">835.00686723686601</X>
                        <Y units="km">-4645.8553462108302</Y>
                        <Z units="km">-4898.6227367310903</Z>
                        <X_DOT units="km/s">7.1752142654953701</X_DOT>
                        <Y_DOT units="km/s">-1.19585707150542</Y_DOT>
                        <Z_DOT units="km/s">2.3645439138997202</Z_DOT>
                    </stateVector>
                    <stateVector>
                        <EPOCH>2022-022T22:59:00.000Z</EPOCH>
                        <X units="km">2506.02373422643</X>
                        <Y units="km">-4761.3048039535497</Y>
                        <Z units="km">-4160.2723396807796</Z>
                        <X_DOT units="km/s">6.6651718986417103</X_DOT>
                        <Y_DOT units="km/s">0.24002714833038999</Y_DOT>
                        <Z_DOT units="km/s">3.7512695375195402</Z_DOT>
                    </stateVector>
                    <stateVector>
                        <EPOCH>2022-022T23:03:00.000Z</EPOCH>
                        <X units="km">3995.4531657216198</X>
                        <Y units="km">-4531.8242705537896</Y>
                        <Z units="km">-3119.6863007643101</Z>
                        <X_DOT units="km/s">5.6708612856676899</X_DOT>
                        <Y_DOT units="km/s">1.66113624478216</Y_DOT>
                        <Z_DOT units="km/s">4.8677067542393804</Z_DOT>
                    </stateVector>
                    <stateVector>
                        <EPOCH>2022-022T23:07:00.000Z</EPOCH>
                        <X units="km">5194.83784480345</X>
                        <Y units="km">-3973.4134150193199</Y>
                        <Z units="km">-1852.0405469781399</Z>
                        <X_DOT units="km/s">4.2626007258070002</X_DOT>
                        <Y_DOT units="km/s">2.96432369639941</Y_DOT>
                        <Z_DOT units="km/s">5.6316392972924803</Z_DOT>
                    </stateVector>
                    <stateVector>
                        <EPOCH>2022-022T23:11:00.000Z</EPOCH>
                        <X units="km">6016.4210804630402</X>
                        <Y units="km">-3126.0665648919198</Y>
                        <Z units="km">-449.35677183263198</Z>
                        <X_DOT units="km/s">2.5416427238646402</X_DOT>
                        <Y_DOT units="km/s">4.0540426191702297</Y_DOT>
                        <Z_DOT units="km/s">5.9858605324861296</Z_DOT>
                    </stateVector>
                    <stateVector>
                        <EPOCH>2022-022T23:15:00.000Z</EPOCH>
                        <X units="km">6399.7928010338901</X>
                        <Y units="km">-2051.0545730244298</Y>
                        <Z units="km">986.12251688994002</Z>
                        <X_DOT units="km/s">0.63326197504488002</X_DOT>
                        <Y_DOT units="km/s">4.8497165624188101</Y_DOT>
                        <Z_DOT units="km/s">5.9030571150430502</Z_DOT>
                    </stateVector>
                    
                </data>
            </segment>
        </body>
    </oem>
</ndm>
